[{"OBJECT_NAME":"STARLINK-34873","OBJECT_ID":"2025-189Z","EPOCH":"2026-03-09T15:21:37.481760","MEAN_MOTION":15.30192814,"ECCENTRICITY":0.0001115,"INCLINATION":53.1607,"RA_OF_ASC_NODE":206.6533,"ARG_OF_PERICENTER":101.6411,"MEAN_ANOMALY":258.4715,"EPHEMERIS_TYPE":0,"CLASSIFICATION_TYPE":"U","NORAD_CAT_ID":65346,"ELEMENT_SET_NO":999,"REV_AT_EPOCH":3111,"BSTAR":0.00045328,"MEAN_MOTION_DOT":0.00013087,"MEAN_MOTION_DDOT":0},{"OBJECT_NAME":"TRANSPORTER-1 OBJECT AA","OBJECT_ID":"2021-006AA","EPOCH":"2026-03-09T22:58:14.761920","MEAN_MOTION":15.29982294,"ECCENTRICITY":0.00086604,"INCLINATION":97.2381,"RA_OF_ASC_NODE":112.457,"ARG_OF_PERICENTER":185.709,"MEAN_ANOMALY":174.4054,"EPHEMERIS_TYPE":0,"CLASSIFICATION_TYPE":"U","NORAD_CAT_ID":47437,"ELEMENT_SET_NO":999,"REV_AT_EPOCH":28414,"BSTAR":0.0002197941,"MEAN_MOTION_DOT":6.312e-5,"MEAN_MOTION_DDOT":0}]
